[
    {
        "Altitude(m)": 702703.6728423731,
        "Argument of Periapsis(deg)": 0.0022780242373254137,
        "Eccentricity": 0.0,
        "Inclination(deg)": 45.0,
        "Latitude(deg)": 9.886284765477997,
        "Longitude(deg)": 94.88758270075493,
        "Mean Anomaly(deg)": 165.9430433294962,
        "RAAN(deg)": 24.997849611708357,
        "Satellite Name": "Constellation 1 120",
        "Satellite Number": 120,
        "Semi-Major Axis(m)": 7083131.272910544,
        "Time(s)": 38
    },
    {
        "Altitude(m)": 702704.5627377036,
        "Argument of Periapsis(deg)": 0.002337972243570819,
        "Eccentricity": 0.0,
        "Inclination(deg)": 45.0,
        "Latitude(deg)": 9.843720650589425,
        "Longitude(deg)": 94.92763102329334,
        "Mean Anomaly(deg)": 166.0037444697461,
        "RAAN(deg)": 24.99779302254279,
        "Satellite Name": "Constellation 1 120",
        "Satellite Number": 120,
        "Semi-Major Axis(m)": 7083131.272910544,
        "Time(s)": 39
    },
    {
        "Altitude(m)": 702705.4723175269,
        "Argument of Periapsis(deg)": 0.0023979202498162246,
        "Eccentricity": 0.0,
        "Inclination(deg)": 45.0,
        "Latitude(deg)": 9.80115070476288,
        "Longitude(deg)": 94.96766800020427,
        "Mean Anomaly(deg)": 166.064445609996,
        "RAAN(deg)": 24.99773643337722,
        "Satellite Name": "Constellation 1 120",
        "Satellite Number": 120,
        "Semi-Major Axis(m)": 7083131.272910544,
        "Time(s)": 40
    },
    {
        "Altitude(m)": 702706.4015962015,
        "Argument of Periapsis(deg)": 0.00245786825606163,
        "Eccentricity": 0.0,
        "Inclination(deg)": 45.0,
        "Latitude(deg)": 9.758574955419252,
        "Longitude(deg)": 95.00769368259621,
        "Mean Anomaly(deg)": 166.12514675024588,
        "RAAN(deg)": 24.997679844211653,
        "Satellite Name": "Constellation 1 120",
        "Satellite Number": 120,
        "Semi-Major Axis(m)": 7083131.272910544,
        "Time(s)": 41
    },
    {
        "Altitude(m)": 702707.3505879926,
        "Argument of Periapsis(deg)": 0.002517816262307036,
        "Eccentricity": 0.0,
        "Inclination(deg)": 45.0,
        "Latitude(deg)": 9.71599342995754,
        "Longitude(deg)": 95.04770812155454,
        "Mean Anomaly(deg)": 166.18584789049578,
        "RAAN(deg)": 24.99762325504608,
        "Satellite Name": "Constellation 1 120",
        "Satellite Number": 120,
        "Semi-Major Axis(m)": 7083131.272910544,
        "Time(s)": 42
    },
    {
        "Altitude(m)": 702708.3193070875,
        "Argument of Periapsis(deg)": 0.0025777642685524413,
        "Eccentricity": 0.0,
        "Inclination(deg)": 45.0,
        "Latitude(deg)": 9.673406155755142,
        "Longitude(deg)": 95.08771136814148,
        "Mean Anomaly(deg)": 166.24654903074568,
        "RAAN(deg)": 24.997566665880512,
        "Satellite Name": "Constellation 1 120",
        "Satellite Number": 120,
        "Semi-Major Axis(m)": 7083131.272910544,
        "Time(s)": 43
    },
    {
        "Altitude(m)": 702709.3077675875,
        "Argument of Periapsis(deg)": 0.002637712274797847,
        "Eccentricity": 0.0,
        "Inclination(deg)": 45.0,
        "Latitude(deg)": 9.630813160167842,
        "Longitude(deg)": 95.12770330529912,
        "Mean Anomaly(deg)": 166.3072501709956,
        "RAAN(deg)": 24.997510076714942,
        "Satellite Name": "Constellation 1 120",
        "Satellite Number": 120,
        "Semi-Major Axis(m)": 7083131.272910544,
        "Time(s)": 44
    },
    {
        "Altitude(m)": 702710.3159835119,
        "Argument of Periapsis(deg)": 0.0026976602810432526,
        "Eccentricity": 0.0,
        "Inclination(deg)": 45.0,
        "Latitude(deg)": 9.588214470530044,
        "Longitude(deg)": 95.16768432023783,
        "Mean Anomaly(deg)": 166.36795131124546,
        "RAAN(deg)": 24.997453487549375,
        "Satellite Name": "Constellation 1 120",
        "Satellite Number": 120,
        "Semi-Major Axis(m)": 7083131.272910544,
        "Time(s)": 45
    },
    {
        "Altitude(m)": 702711.3439687842,
        "Argument of Periapsis(deg)": 0.0027576082872886585,
        "Eccentricity": 0.0,
        "Inclination(deg)": 45.0,
        "Latitude(deg)": 9.545610114154696,
        "Longitude(deg)": 95.20765429585384,
        "Mean Anomaly(deg)": 166.4286524514954,
        "RAAN(deg)": 24.997396898383805,
        "Satellite Name": "Constellation 1 120",
        "Satellite Number": 120,
        "Semi-Major Axis(m)": 7083131.272910544,
        "Time(s)": 46
    },
    {
        "Altitude(m)": 702712.3917372611,
        "Argument of Periapsis(deg)": 0.0028175562935340644,
        "Eccentricity": 0.0,
        "Inclination(deg)": 45.0,
        "Latitude(deg)": 9.503000118333484,
        "Longitude(deg)": 95.2476132831177,
        "Mean Anomaly(deg)": 166.48935359174524,
        "RAAN(deg)": 24.99734030921823,
        "Satellite Name": "Constellation 1 120",
        "Satellite Number": 120,
        "Semi-Major Axis(m)": 7083131.272910544,
        "Time(s)": 47
    },
    {
        "Altitude(m)": 702713.4593026967,
        "Argument of Periapsis(deg)": 0.00287750429977947,
        "Eccentricity": 0.0,
        "Inclination(deg)": 45.0,
        "Latitude(deg)": 9.460384510336949,
        "Longitude(deg)": 95.28756133297722,
        "Mean Anomaly(deg)": 166.55005473199517,
        "RAAN(deg)": 24.997283720052664,
        "Satellite Name": "Constellation 1 120",
        "Satellite Number": 120,
        "Semi-Major Axis(m)": 7083131.272910544,
        "Time(s)": 48
    },
    {
        "Altitude(m)": 702714.5466787654,
        "Argument of Periapsis(deg)": 0.002937452306024875,
        "Eccentricity": 0.0,
        "Inclination(deg)": 45.0,
        "Latitude(deg)": 9.41776331741456,
        "Longitude(deg)": 95.32749849635766,
        "Mean Anomaly(deg)": 166.61075587224505,
        "RAAN(deg)": 24.997227130887094,
        "Satellite Name": "Constellation 1 120",
        "Satellite Number": 120,
        "Semi-Major Axis(m)": 7083131.272910544,
        "Time(s)": 49
    },
    {
        "Altitude(m)": 702715.6538790622,
        "Argument of Periapsis(deg)": 0.0029974003122702807,
        "Eccentricity": 0.0,
        "Inclination(deg)": 45.0,
        "Latitude(deg)": 9.37513656679485,
        "Longitude(deg)": 95.36742482416157,
        "Mean Anomaly(deg)": 166.67145701249498,
        "RAAN(deg)": 24.997170541721527,
        "Satellite Name": "Constellation 1 120",
        "Satellite Number": 120,
        "Semi-Major Axis(m)": 7083131.272910544,
        "Time(s)": 50
    },
    {
        "Altitude(m)": 702716.7809170897,
        "Argument of Periapsis(deg)": 0.0030573483185156866,
        "Eccentricity": 0.0,
        "Inclination(deg)": 45.0,
        "Latitude(deg)": 9.332504285685408,
        "Longitude(deg)": 95.40734036726923,
        "Mean Anomaly(deg)": 166.73215815274486,
        "RAAN(deg)": 24.997113952555956,
        "Satellite Name": "Constellation 1 120",
        "Satellite Number": 120,
        "Semi-Major Axis(m)": 7083131.272910544,
        "Time(s)": 51
    },
    {
        "Altitude(m)": 702717.9278062779,
        "Argument of Periapsis(deg)": 0.003117296324761092,
        "Eccentricity": 0.0,
        "Inclination(deg)": 45.0,
        "Latitude(deg)": 9.289866501273101,
        "Longitude(deg)": 95.44724500844131,
        "Mean Anomaly(deg)": 166.7928592929948,
        "RAAN(deg)": 24.997057363390383,
        "Satellite Name": "Constellation 1 120",
        "Satellite Number": 120,
        "Semi-Major Axis(m)": 7083131.272910544,
        "Time(s)": 52
    },
    {
        "Altitude(m)": 702719.0945599468,
        "Argument of Periapsis(deg)": 0.0031772443310064975,
        "Eccentricity": 0.0,
        "Inclination(deg)": 45.0,
        "Latitude(deg)": 9.247223240724132,
        "Longitude(deg)": 95.48713913470755,
        "Mean Anomaly(deg)": 166.85356043324467,
        "RAAN(deg)": 24.997000774224816,
        "Satellite Name": "Constellation 1 120",
        "Satellite Number": 120,
        "Semi-Major Axis(m)": 7083131.272910544,
        "Time(s)": 53
    },
    {
        "Altitude(m)": 702720.2811913554,
        "Argument of Periapsis(deg)": 0.0032371923372519038,
        "Eccentricity": 0.0,
        "Inclination(deg)": 45.0,
        "Latitude(deg)": 9.204574531184155,
        "Longitude(deg)": 95.5270226287841,
        "Mean Anomaly(deg)": 166.91426157349457,
        "RAAN(deg)": 24.99694418505925,
        "Satellite Name": "Constellation 1 120",
        "Satellite Number": 120,
        "Semi-Major Axis(m)": 7083131.272910544,
        "Time(s)": 54
    },
    {
        "Altitude(m)": 702721.4877136637,
        "Argument of Periapsis(deg)": 0.0032971403434973088,
        "Eccentricity": 0.0,
        "Inclination(deg)": 45.0,
        "Latitude(deg)": 9.16192039977831,
        "Longitude(deg)": 95.56689554146223,
        "Mean Anomaly(deg)": 166.97496271374445,
        "RAAN(deg)": 24.99688759589368,
        "Satellite Name": "Constellation 1 120",
        "Satellite Number": 120,
        "Semi-Major Axis(m)": 7083131.272910544,
        "Time(s)": 55
    },
    {
        "Altitude(m)": 702722.7141399514,
        "Argument of Periapsis(deg)": 0.0033570883497427146,
        "Eccentricity": 0.0,
        "Inclination(deg)": 45.0,
        "Latitude(deg)": 9.119260873611331,
        "Longitude(deg)": 95.6067579235111,
        "Mean Anomaly(deg)": 167.03566385399438,
        "RAAN(deg)": 24.99683100672811,
        "Satellite Name": "Constellation 1 120",
        "Satellite Number": 120,
        "Semi-Major Axis(m)": 7083131.272910544,
        "Time(s)": 56
    }
]